[
    {"model":"address.area","fields":{"id":"1","state_id":"1","name_ar":"15 مايو","name":"15 May"}},
    {"model":"address.area","fields":{"id":"2","state_id":"1","name_ar":"الازبكية","name":"Al Azbakeyah"}},
    {"model":"address.area","fields":{"id":"3","state_id":"1","name_ar":"البساتين","name":"Al Basatin"}},
    {"model":"address.area","fields":{"id":"4","state_id":"1","name_ar":"التبين","name":"Tebin"}},
    {"model":"address.area","fields":{"id":"5","state_id":"1","name_ar":"الخليفة","name":"El-Khalifa"}},
    {"model":"address.area","fields":{"id":"6","state_id":"1","name_ar":"الدراسة","name":"El darrasa"}},
    {"model":"address.area","fields":{"id":"7","state_id":"1","name_ar":"الدرب الاحمر","name":"Aldarb Alahmar"}},
    {"model":"address.area","fields":{"id":"8","state_id":"1","name_ar":"الزاوية الحمراء","name":"Zawya al-Hamra"}},
    {"model":"address.area","fields":{"id":"9","state_id":"1","name_ar":"الزيتون","name":"El-Zaytoun"}},
    {"model":"address.area","fields":{"id":"10","state_id":"1","name_ar":"الساحل","name":"Sahel"}},
    {"model":"address.area","fields":{"id":"11","state_id":"1","name_ar":"السلام","name":"El Salam"}},
    {"model":"address.area","fields":{"id":"12","state_id":"1","name_ar":"السيدة زينب","name":"Sayeda Zeinab"}},
    {"model":"address.area","fields":{"id":"13","state_id":"1","name_ar":"الشرابية","name":"El Sharabeya"}},
    {"model":"address.area","fields":{"id":"14","state_id":"1","name_ar":"مدينة الشروق","name":"Shorouk"}},
    {"model":"address.area","fields":{"id":"15","state_id":"1","name_ar":"الظاهر","name":"El Daher"}},
    {"model":"address.area","fields":{"id":"16","state_id":"1","name_ar":"العتبة","name":"Ataba"}},
    {"model":"address.area","fields":{"id":"17","state_id":"1","name_ar":"القاهرة الجديدة","name":"New Cairo"}},
    {"model":"address.area","fields":{"id":"18","state_id":"1","name_ar":"المرج","name":"El Marg"}},
    {"model":"address.area","fields":{"id":"19","state_id":"1","name_ar":"عزبة النخل","name":"Ezbet el Nakhl"}},
    {"model":"address.area","fields":{"id":"20","state_id":"1","name_ar":"المطرية","name":"Matareya"}},
    {"model":"address.area","fields":{"id":"21","state_id":"1","name_ar":"المعادى","name":"Maadi"}},
    {"model":"address.area","fields":{"id":"22","state_id":"1","name_ar":"المعصرة","name":"Maasara"}},
    {"model":"address.area","fields":{"id":"23","state_id":"1","name_ar":"المقطم","name":"Mokattam"}},
    {"model":"address.area","fields":{"id":"24","state_id":"1","name_ar":"المنيل","name":"Manyal"}},
    {"model":"address.area","fields":{"id":"25","state_id":"1","name_ar":"الموسكى","name":"Mosky"}},
    {"model":"address.area","fields":{"id":"26","state_id":"1","name_ar":"النزهة","name":"Nozha"}},
    {"model":"address.area","fields":{"id":"27","state_id":"1","name_ar":"الوايلى","name":"Waily"}},
    {"model":"address.area","fields":{"id":"28","state_id":"1","name_ar":"باب الشعرية","name":"Bab al-Shereia"}},
    {"model":"address.area","fields":{"id":"29","state_id":"1","name_ar":"بولاق","name":"Bolaq"}},
    {"model":"address.area","fields":{"id":"30","state_id":"1","name_ar":"جاردن سيتى","name":"Garden City"}},
    {"model":"address.area","fields":{"id":"31","state_id":"1","name_ar":"حدائق القبة","name":"Hadayek El-Kobba"}},
    {"model":"address.area","fields":{"id":"32","state_id":"1","name_ar":"حلوان","name":"Helwan"}},
    {"model":"address.area","fields":{"id":"33","state_id":"1","name_ar":"دار السلام","name":"Dar Al Salam"}},
    {"model":"address.area","fields":{"id":"34","state_id":"1","name_ar":"شبرا","name":"Shubra"}},
    {"model":"address.area","fields":{"id":"35","state_id":"1","name_ar":"طره","name":"Tura"}},
    {"model":"address.area","fields":{"id":"36","state_id":"1","name_ar":"عابدين","name":"Abdeen"}},
    {"model":"address.area","fields":{"id":"37","state_id":"1","name_ar":"عباسية","name":"Abaseya"}},
    {"model":"address.area","fields":{"id":"38","state_id":"1","name_ar":"عين شمس","name":"Ain Shams"}},
    {"model":"address.area","fields":{"id":"39","state_id":"1","name_ar":"مدينة نصر","name":"Nasr City"}},
    {"model":"address.area","fields":{"id":"40","state_id":"1","name_ar":"مصر الجديدة","name":"New Heliopolis"}},
    {"model":"address.area","fields":{"id":"41","state_id":"1","name_ar":"مصر القديمة","name":"Masr Al Qadima"}},
    {"model":"address.area","fields":{"id":"42","state_id":"1","name_ar":"منشية ناصر","name":"Mansheya Nasir"}},
    {"model":"address.area","fields":{"id":"43","state_id":"1","name_ar":"مدينة بدر","name":"Badr City"}},
    {"model":"address.area","fields":{"id":"44","state_id":"1","name_ar":"مدينة العبور","name":"Obour City"}},
    {"model":"address.area","fields":{"id":"45","state_id":"1","name_ar":"وسط البلد","name":"Cairo Downtown"}},
    {"model":"address.area","fields":{"id":"46","state_id":"1","name_ar":"الزمالك","name":"Zamalek"}},
    {"model":"address.area","fields":{"id":"47","state_id":"1","name_ar":"قصر النيل","name":"Kasr El Nile"}},
    {"model":"address.area","fields":{"id":"48","state_id":"1","name_ar":"الرحاب","name":"Rehab"}},
    {"model":"address.area","fields":{"id":"49","state_id":"1","name_ar":"القطامية","name":"Katameya"}},
    {"model":"address.area","fields":{"id":"50","state_id":"1","name_ar":"مدينتي","name":"Madinty"}},
    {"model":"address.area","fields":{"id":"51","state_id":"1","name_ar":"روض الفرج","name":"Rod Alfarag"}},
    {"model":"address.area","fields":{"id":"52","state_id":"1","name_ar":"شيراتون","name":"Sheraton"}},
    {"model":"address.area","fields":{"id":"53","state_id":"1","name_ar":"الجمالية","name":"El-Gamaleya"}},
    {"model":"address.area","fields":{"id":"54","state_id":"1","name_ar":"العاشر من رمضان","name":"10th of Ramadan City"}},
    {"model":"address.area","fields":{"id":"55","state_id":"1","name_ar":"الحلمية","name":"Helmeyat Alzaytoun"}},
    {"model":"address.area","fields":{"id":"56","state_id":"1","name_ar":"النزهة الجديدة","name":"New Nozha"}},
    {"model":"address.area","fields":{"id":"57","state_id":"1","name_ar":"العاصمة الإدارية","name":"Capital New"}},
    {"model":"address.area","fields":{"id":"58","state_id":"2","name_ar":"الجيزة","name":"Giza"}},
    {"model":"address.area","fields":{"id":"59","state_id":"2","name_ar":"السادس من أكتوبر","name":"Sixth of October"}},
    {"model":"address.area","fields":{"id":"60","state_id":"2","name_ar":"الشيخ زايد","name":"Cheikh Zayed"}},
    {"model":"address.area","fields":{"id":"61","state_id":"2","name_ar":"الحوامدية","name":"Hawamdiyah"}},
    {"model":"address.area","fields":{"id":"62","state_id":"2","name_ar":"البدرشين","name":"Al Badrasheen"}},
    {"model":"address.area","fields":{"id":"63","state_id":"2","name_ar":"الصف","name":"Saf"}},
    {"model":"address.area","fields":{"id":"64","state_id":"2","name_ar":"أطفيح","name":"Atfih"}},
    {"model":"address.area","fields":{"id":"65","state_id":"2","name_ar":"العياط","name":"Al Ayat"}},
    {"model":"address.area","fields":{"id":"66","state_id":"2","name_ar":"الباويطي","name":"Al-Bawaiti"}},
    {"model":"address.area","fields":{"id":"67","state_id":"2","name_ar":"منشأة القناطر","name":"ManshiyetAl Qanater"}},
    {"model":"address.area","fields":{"id":"68","state_id":"2","name_ar":"أوسيم","name":"Oaseem"}},
    {"model":"address.area","fields":{"id":"69","state_id":"2","name_ar":"كرداسة","name":"Kerdasa"}},
    {"model":"address.area","fields":{"id":"70","state_id":"2","name_ar":"أبو النمرس","name":"Abu Nomros"}},
    {"model":"address.area","fields":{"id":"71","state_id":"2","name_ar":"كفر غطاطي","name":"Kafr Ghati"}},
    {"model":"address.area","fields":{"id":"72","state_id":"2","name_ar":"منشأة البكاري","name":"Manshiyet Al Bakari"}},
    {"model":"address.area","fields":{"id":"73","state_id":"2","name_ar":"الدقى","name":"Dokki"}},
    {"model":"address.area","fields":{"id":"74","state_id":"2","name_ar":"العجوزة","name":"Agouza"}},
    {"model":"address.area","fields":{"id":"75","state_id":"2","name_ar":"الهرم","name":"Haram"}},
    {"model":"address.area","fields":{"id":"76","state_id":"2","name_ar":"الوراق","name":"Warraq"}},
    {"model":"address.area","fields":{"id":"77","state_id":"2","name_ar":"امبابة","name":"Imbaba"}},
    {"model":"address.area","fields":{"id":"78","state_id":"2","name_ar":"بولاق الدكرور","name":"Boulaq Dakrour"}},
    {"model":"address.area","fields":{"id":"79","state_id":"2","name_ar":"الواحات البحرية","name":"Al Wahat Al Baharia"}},
    {"model":"address.area","fields":{"id":"80","state_id":"2","name_ar":"العمرانية","name":"Omraneya"}},
    {"model":"address.area","fields":{"id":"81","state_id":"2","name_ar":"المنيب","name":"Moneeb"}},
    {"model":"address.area","fields":{"id":"82","state_id":"2","name_ar":"بين السرايات","name":"Bin Alsarayat"}},
    {"model":"address.area","fields":{"id":"83","state_id":"2","name_ar":"الكيت كات","name":"Kit Kat"}},
    {"model":"address.area","fields":{"id":"84","state_id":"2","name_ar":"المهندسين","name":"Mohandessin"}},
    {"model":"address.area","fields":{"id":"85","state_id":"2","name_ar":"فيصل","name":"Faisal"}},
    {"model":"address.area","fields":{"id":"86","state_id":"2","name_ar":"أبو رواش","name":"Abu Rawash"}},
    {"model":"address.area","fields":{"id":"87","state_id":"2","name_ar":"حدائق الأهرام","name":"Hadayek Alahram"}},
    {"model":"address.area","fields":{"id":"88","state_id":"2","name_ar":"الحرانية","name":"Haraneya"}},
    {"model":"address.area","fields":{"id":"89","state_id":"2","name_ar":"حدائق اكتوبر","name":"Hadayek October"}},
    {"model":"address.area","fields":{"id":"90","state_id":"2","name_ar":"صفط اللبن","name":"Saft Allaban"}},
    {"model":"address.area","fields":{"id":"91","state_id":"2","name_ar":"القرية الذكية","name":"Smart Village"}},
    {"model":"address.area","fields":{"id":"92","state_id":"2","name_ar":"ارض اللواء","name":"Ard Ellwaa"}},
    {"model":"address.area","fields":{"id":"93","state_id":"3","name_ar":"ابو قير","name":"Abu Qir"}},
    {"model":"address.area","fields":{"id":"94","state_id":"3","name_ar":"الابراهيمية","name":"Al Ibrahimeyah"}},
    {"model":"address.area","fields":{"id":"95","state_id":"3","name_ar":"الأزاريطة","name":"Azarita"}},
    {"model":"address.area","fields":{"id":"96","state_id":"3","name_ar":"الانفوشى","name":"Anfoushi"}},
    {"model":"address.area","fields":{"id":"97","state_id":"3","name_ar":"الدخيلة","name":"Dekheila"}},
    {"model":"address.area","fields":{"id":"98","state_id":"3","name_ar":"السيوف","name":"El Soyof"}},
    {"model":"address.area","fields":{"id":"99","state_id":"3","name_ar":"العامرية","name":"Ameria"}},
    {"model":"address.area","fields":{"id":"100","state_id":"3","name_ar":"اللبان","name":"El Labban"}},
    {"model":"address.area","fields":{"id":"101","state_id":"3","name_ar":"المفروزة","name":"Al Mafrouza"}},
    {"model":"address.area","fields":{"id":"102","state_id":"3","name_ar":"المنتزه","name":"El Montaza"}},
    {"model":"address.area","fields":{"id":"103","state_id":"3","name_ar":"المنشية","name":"Mansheya"}},
    {"model":"address.area","fields":{"id":"104","state_id":"3","name_ar":"الناصرية","name":"Naseria"}},
    {"model":"address.area","fields":{"id":"105","state_id":"3","name_ar":"امبروزو","name":"Ambrozo"}},
    {"model":"address.area","fields":{"id":"106","state_id":"3","name_ar":"باب شرق","name":"Bab Sharq"}},
    {"model":"address.area","fields":{"id":"107","state_id":"3","name_ar":"برج العرب","name":"Bourj Alarab"}},
    {"model":"address.area","fields":{"id":"108","state_id":"3","name_ar":"ستانلى","name":"Stanley"}},
    {"model":"address.area","fields":{"id":"109","state_id":"3","name_ar":"سموحة","name":"Smouha"}},
    {"model":"address.area","fields":{"id":"110","state_id":"3","name_ar":"سيدى بشر","name":"Sidi Bishr"}},
    {"model":"address.area","fields":{"id":"111","state_id":"3","name_ar":"شدس","name":"Shads"}},
    {"model":"address.area","fields":{"id":"112","state_id":"3","name_ar":"غيط العنب","name":"Gheet Alenab"}},
    {"model":"address.area","fields":{"id":"113","state_id":"3","name_ar":"فلمينج","name":"Fleming"}},
    {"model":"address.area","fields":{"id":"114","state_id":"3","name_ar":"فيكتوريا","name":"Victoria"}},
    {"model":"address.area","fields":{"id":"115","state_id":"3","name_ar":"كامب شيزار","name":"Camp Shizar"}},
    {"model":"address.area","fields":{"id":"116","state_id":"3","name_ar":"كرموز","name":"Karmooz"}},
    {"model":"address.area","fields":{"id":"117","state_id":"3","name_ar":"محطة الرمل","name":"Mahta Alraml"}},
    {"model":"address.area","fields":{"id":"118","state_id":"3","name_ar":"مينا البصل","name":"Mina El-Basal"}},
    {"model":"address.area","fields":{"id":"119","state_id":"3","name_ar":"العصافرة","name":"Asafra"}},
    {"model":"address.area","fields":{"id":"120","state_id":"3","name_ar":"العجمي","name":"Agamy"}},
    {"model":"address.area","fields":{"id":"121","state_id":"3","name_ar":"بكوس","name":"Bakos"}},
    {"model":"address.area","fields":{"id":"122","state_id":"3","name_ar":"بولكلي","name":"Boulkly"}},
    {"model":"address.area","fields":{"id":"123","state_id":"3","name_ar":"كليوباترا","name":"Cleopatra"}},
    {"model":"address.area","fields":{"id":"124","state_id":"3","name_ar":"جليم","name":"Glim"}},
    {"model":"address.area","fields":{"id":"125","state_id":"3","name_ar":"المعمورة","name":"Al Mamurah"}},
    {"model":"address.area","fields":{"id":"126","state_id":"3","name_ar":"المندرة","name":"Al Mandara"}},
    {"model":"address.area","fields":{"id":"127","state_id":"3","name_ar":"محرم بك","name":"Moharam Bek"}},
    {"model":"address.area","fields":{"id":"128","state_id":"3","name_ar":"الشاطبي","name":"Elshatby"}},
    {"model":"address.area","fields":{"id":"129","state_id":"3","name_ar":"سيدي جابر","name":"Sidi Gaber"}},
    {"model":"address.area","fields":{"id":"130","state_id":"3","name_ar":"الساحل الشمالي","name":"North Coast\/sahel"}},
    {"model":"address.area","fields":{"id":"131","state_id":"3","name_ar":"الحضرة","name":"Alhadra"}},
    {"model":"address.area","fields":{"id":"132","state_id":"3","name_ar":"العطارين","name":"Alattarin"}},
    {"model":"address.area","fields":{"id":"133","state_id":"3","name_ar":"سيدي كرير","name":"Sidi Kerir"}},
    {"model":"address.area","fields":{"id":"134","state_id":"3","name_ar":"الجمرك","name":"Elgomrok"}},
    {"model":"address.area","fields":{"id":"135","state_id":"3","name_ar":"المكس","name":"Al Max"}},
    {"model":"address.area","fields":{"id":"136","state_id":"3","name_ar":"مارينا","name":"Marina"}},
    {"model":"address.area","fields":{"id":"137","state_id":"4","name_ar":"المنصورة","name":"Mansoura"}},
    {"model":"address.area","fields":{"id":"138","state_id":"4","name_ar":"طلخا","name":"Talkha"}},
    {"model":"address.area","fields":{"id":"139","state_id":"4","name_ar":"ميت غمر","name":"Mitt Ghamr"}},
    {"model":"address.area","fields":{"id":"140","state_id":"4","name_ar":"دكرنس","name":"Dekernes"}},
    {"model":"address.area","fields":{"id":"141","state_id":"4","name_ar":"أجا","name":"Aga"}},
    {"model":"address.area","fields":{"id":"142","state_id":"4","name_ar":"منية النصر","name":"Menia El Nasr"}},
    {"model":"address.area","fields":{"id":"143","state_id":"4","name_ar":"السنبلاوين","name":"Sinbillawin"}},
    {"model":"address.area","fields":{"id":"144","state_id":"4","name_ar":"الكردي","name":"El Kurdi"}},
    {"model":"address.area","fields":{"id":"145","state_id":"4","name_ar":"بني عبيد","name":"Bani Ubaid"}},
    {"model":"address.area","fields":{"id":"146","state_id":"4","name_ar":"المنزلة","name":"Al Manzala"}},
    {"model":"address.area","fields":{"id":"147","state_id":"4","name_ar":"تمي الأمديد","name":"tami al'amdid"}},
    {"model":"address.area","fields":{"id":"148","state_id":"4","name_ar":"الجمالية","name":"aljamalia"}},
    {"model":"address.area","fields":{"id":"149","state_id":"4","name_ar":"شربين","name":"Sherbin"}},
    {"model":"address.area","fields":{"id":"150","state_id":"4","name_ar":"المطرية","name":"Mataria"}},
    {"model":"address.area","fields":{"id":"151","state_id":"4","name_ar":"بلقاس","name":"Belqas"}},
    {"model":"address.area","fields":{"id":"152","state_id":"4","name_ar":"ميت سلسيل","name":"Meet Salsil"}},
    {"model":"address.area","fields":{"id":"153","state_id":"4","name_ar":"جمصة","name":"Gamasa"}},
    {"model":"address.area","fields":{"id":"154","state_id":"4","name_ar":"محلة دمنة","name":"Mahalat Damana"}},
    {"model":"address.area","fields":{"id":"155","state_id":"4","name_ar":"نبروه","name":"Nabroh"}},
    {"model":"address.area","fields":{"id":"156","state_id":"5","name_ar":"الغردقة","name":"Hurghada"}},
    {"model":"address.area","fields":{"id":"157","state_id":"5","name_ar":"رأس غارب","name":"Ras Ghareb"}},
    {"model":"address.area","fields":{"id":"158","state_id":"5","name_ar":"سفاجا","name":"Safaga"}},
    {"model":"address.area","fields":{"id":"159","state_id":"5","name_ar":"القصير","name":"El Qusiar"}},
    {"model":"address.area","fields":{"id":"160","state_id":"5","name_ar":"مرسى علم","name":"Marsa Alam"}},
    {"model":"address.area","fields":{"id":"161","state_id":"5","name_ar":"الشلاتين","name":"Shalatin"}},
    {"model":"address.area","fields":{"id":"162","state_id":"5","name_ar":"حلايب","name":"Halaib"}},
    {"model":"address.area","fields":{"id":"163","state_id":"5","name_ar":"الدهار","name":"Aldahar"}},
    {"model":"address.area","fields":{"id":"164","state_id":"6","name_ar":"دمنهور","name":"Damanhour"}},
    {"model":"address.area","fields":{"id":"165","state_id":"6","name_ar":"كفر الدوار","name":"Kafr El Dawar"}},
    {"model":"address.area","fields":{"id":"166","state_id":"6","name_ar":"رشيد","name":"Rashid"}},
    {"model":"address.area","fields":{"id":"167","state_id":"6","name_ar":"إدكو","name":"Edco"}},
    {"model":"address.area","fields":{"id":"168","state_id":"6","name_ar":"أبو المطامير","name":"Abu al-Matamir"}},
    {"model":"address.area","fields":{"id":"169","state_id":"6","name_ar":"أبو حمص","name":"Abu Homs"}},
    {"model":"address.area","fields":{"id":"170","state_id":"6","name_ar":"الدلنجات","name":"Delengat"}},
    {"model":"address.area","fields":{"id":"171","state_id":"6","name_ar":"المحمودية","name":"Mahmoudiyah"}},
    {"model":"address.area","fields":{"id":"172","state_id":"6","name_ar":"الرحمانية","name":"Rahmaniyah"}},
    {"model":"address.area","fields":{"id":"173","state_id":"6","name_ar":"إيتاي البارود","name":"Itai Baroud"}},
    {"model":"address.area","fields":{"id":"174","state_id":"6","name_ar":"حوش عيسى","name":"Housh Eissa"}},
    {"model":"address.area","fields":{"id":"175","state_id":"6","name_ar":"شبراخيت","name":"Shubrakhit"}},
    {"model":"address.area","fields":{"id":"176","state_id":"6","name_ar":"كوم حمادة","name":"Kom Hamada"}},
    {"model":"address.area","fields":{"id":"177","state_id":"6","name_ar":"بدر","name":"Badr"}},
    {"model":"address.area","fields":{"id":"178","state_id":"6","name_ar":"وادي النطرون","name":"Wadi Natrun"}},
    {"model":"address.area","fields":{"id":"179","state_id":"6","name_ar":"النوبارية الجديدة","name":"New Nubaria"}},
    {"model":"address.area","fields":{"id":"180","state_id":"6","name_ar":"النوبارية","name":"Alnoubareya"}},
    {"model":"address.area","fields":{"id":"181","state_id":"7","name_ar":"الفيوم","name":"Fayoum"}},
    {"model":"address.area","fields":{"id":"182","state_id":"7","name_ar":"الفيوم الجديدة","name":"Fayoum El Gedida"}},
    {"model":"address.area","fields":{"id":"183","state_id":"7","name_ar":"طامية","name":"Tamiya"}},
    {"model":"address.area","fields":{"id":"184","state_id":"7","name_ar":"سنورس","name":"Snores"}},
    {"model":"address.area","fields":{"id":"185","state_id":"7","name_ar":"إطسا","name":"Etsa"}},
    {"model":"address.area","fields":{"id":"186","state_id":"7","name_ar":"إبشواي","name":"Epschway"}},
    {"model":"address.area","fields":{"id":"187","state_id":"7","name_ar":"يوسف الصديق","name":"Yusuf El Sediaq"}},
    {"model":"address.area","fields":{"id":"188","state_id":"7","name_ar":"الحادقة","name":"Hadqa"}},
    {"model":"address.area","fields":{"id":"189","state_id":"7","name_ar":"اطسا","name":"Atsa"}},
    {"model":"address.area","fields":{"id":"190","state_id":"7","name_ar":"الجامعة","name":"Algamaa"}},
    {"model":"address.area","fields":{"id":"191","state_id":"7","name_ar":"السيالة","name":"Sayala"}},
    {"model":"address.area","fields":{"id":"192","state_id":"8","name_ar":"طنطا","name":"Tanta"}},
    {"model":"address.area","fields":{"id":"193","state_id":"8","name_ar":"المحلة الكبرى","name":"Al Mahalla Al Kobra"}},
    {"model":"address.area","fields":{"id":"194","state_id":"8","name_ar":"كفر الزيات","name":"Kafr El Zayat"}},
    {"model":"address.area","fields":{"id":"195","state_id":"8","name_ar":"زفتى","name":"Zefta"}},
    {"model":"address.area","fields":{"id":"196","state_id":"8","name_ar":"السنطة","name":"El Santa"}},
    {"model":"address.area","fields":{"id":"197","state_id":"8","name_ar":"قطور","name":"Qutour"}},
    {"model":"address.area","fields":{"id":"198","state_id":"8","name_ar":"بسيون","name":"Basion"}},
    {"model":"address.area","fields":{"id":"199","state_id":"8","name_ar":"سمنود","name":"Samannoud"}},
    {"model":"address.area","fields":{"id":"200","state_id":"9","name_ar":"الإسماعيلية","name":"Ismailia"}},
    {"model":"address.area","fields":{"id":"201","state_id":"9","name_ar":"فايد","name":"Fayed"}},
    {"model":"address.area","fields":{"id":"202","state_id":"9","name_ar":"القنطرة شرق","name":"Qantara Sharq"}},
    {"model":"address.area","fields":{"id":"203","state_id":"9","name_ar":"القنطرة غرب","name":"Qantara Gharb"}},
    {"model":"address.area","fields":{"id":"204","state_id":"9","name_ar":"التل الكبير","name":"El Tal El Kabier"}},
    {"model":"address.area","fields":{"id":"205","state_id":"9","name_ar":"أبو صوير","name":"Abu Sawir"}},
    {"model":"address.area","fields":{"id":"206","state_id":"9","name_ar":"القصاصين الجديدة","name":"Kasasien El Gedida"}},
    {"model":"address.area","fields":{"id":"207","state_id":"9","name_ar":"نفيشة","name":"Nefesha"}},
    {"model":"address.area","fields":{"id":"208","state_id":"9","name_ar":"الشيخ زايد","name":"Sheikh Zayed"}},
    {"model":"address.area","fields":{"id":"209","state_id":"10","name_ar":"شبين الكوم","name":"Shbeen El Koom"}},
    {"model":"address.area","fields":{"id":"210","state_id":"10","name_ar":"مدينة السادات","name":"Sadat City"}},
    {"model":"address.area","fields":{"id":"211","state_id":"10","name_ar":"منوف","name":"Menouf"}},
    {"model":"address.area","fields":{"id":"212","state_id":"10","name_ar":"سرس الليان","name":"Sars El-Layan"}},
    {"model":"address.area","fields":{"id":"213","state_id":"10","name_ar":"أشمون","name":"Ashmon"}},
    {"model":"address.area","fields":{"id":"214","state_id":"10","name_ar":"الباجور","name":"Al Bagor"}},
    {"model":"address.area","fields":{"id":"215","state_id":"10","name_ar":"قويسنا","name":"Quesna"}},
    {"model":"address.area","fields":{"id":"216","state_id":"10","name_ar":"بركة السبع","name":"Berkat El Saba"}},
    {"model":"address.area","fields":{"id":"217","state_id":"10","name_ar":"تلا","name":"Tala"}},
    {"model":"address.area","fields":{"id":"218","state_id":"10","name_ar":"الشهداء","name":"Al Shohada"}},
    {"model":"address.area","fields":{"id":"219","state_id":"11","name_ar":"المنيا","name":"Minya"}},
    {"model":"address.area","fields":{"id":"220","state_id":"11","name_ar":"المنيا الجديدة","name":"Minya El Gedida"}},
    {"model":"address.area","fields":{"id":"221","state_id":"11","name_ar":"العدوة","name":"El Adwa"}},
    {"model":"address.area","fields":{"id":"222","state_id":"11","name_ar":"مغاغة","name":"Magagha"}},
    {"model":"address.area","fields":{"id":"223","state_id":"11","name_ar":"بني مزار","name":"Bani Mazar"}},
    {"model":"address.area","fields":{"id":"224","state_id":"11","name_ar":"مطاي","name":"Mattay"}},
    {"model":"address.area","fields":{"id":"225","state_id":"11","name_ar":"سمالوط","name":"Samalut"}},
    {"model":"address.area","fields":{"id":"226","state_id":"11","name_ar":"المدينة الفكرية","name":"Madinat El Fekria"}},
    {"model":"address.area","fields":{"id":"227","state_id":"11","name_ar":"ملوي","name":"Meloy"}},
    {"model":"address.area","fields":{"id":"228","state_id":"11","name_ar":"دير مواس","name":"Deir Mawas"}},
    {"model":"address.area","fields":{"id":"229","state_id":"11","name_ar":"ابو قرقاص","name":"Abu Qurqas"}},
    {"model":"address.area","fields":{"id":"230","state_id":"11","name_ar":"ارض سلطان","name":"Ard Sultan"}},
    {"model":"address.area","fields":{"id":"231","state_id":"12","name_ar":"بنها","name":"Banha"}},
    {"model":"address.area","fields":{"id":"232","state_id":"12","name_ar":"قليوب","name":"Qalyub"}},
    {"model":"address.area","fields":{"id":"233","state_id":"12","name_ar":"شبرا الخيمة","name":"Shubra Al Khaimah"}},
    {"model":"address.area","fields":{"id":"234","state_id":"12","name_ar":"القناطر الخيرية","name":"Al Qanater Charity"}},
    {"model":"address.area","fields":{"id":"235","state_id":"12","name_ar":"الخانكة","name":"Khanka"}},
    {"model":"address.area","fields":{"id":"236","state_id":"12","name_ar":"كفر شكر","name":"Kafr Shukr"}},
    {"model":"address.area","fields":{"id":"237","state_id":"12","name_ar":"طوخ","name":"Tukh"}},
    {"model":"address.area","fields":{"id":"238","state_id":"12","name_ar":"قها","name":"Qaha"}},
    {"model":"address.area","fields":{"id":"239","state_id":"12","name_ar":"العبور","name":"Obour"}},
    {"model":"address.area","fields":{"id":"240","state_id":"12","name_ar":"الخصوص","name":"Khosous"}},
    {"model":"address.area","fields":{"id":"241","state_id":"12","name_ar":"شبين القناطر","name":"Shibin Al Qanater"}},
    {"model":"address.area","fields":{"id":"242","state_id":"12","name_ar":"مسطرد","name":"Mostorod"}},
    {"model":"address.area","fields":{"id":"243","state_id":"13","name_ar":"الخارجة","name":"El Kharga"}},
    {"model":"address.area","fields":{"id":"244","state_id":"13","name_ar":"باريس","name":"Paris"}},
    {"model":"address.area","fields":{"id":"245","state_id":"13","name_ar":"موط","name":"Mout"}},
    {"model":"address.area","fields":{"id":"246","state_id":"13","name_ar":"الفرافرة","name":"Farafra"}},
    {"model":"address.area","fields":{"id":"247","state_id":"13","name_ar":"بلاط","name":"Balat"}},
    {"model":"address.area","fields":{"id":"248","state_id":"13","name_ar":"الداخلة","name":"Dakhla"}},
    {"model":"address.area","fields":{"id":"249","state_id":"14","name_ar":"السويس","name":"Suez"}},
    {"model":"address.area","fields":{"id":"250","state_id":"14","name_ar":"الجناين","name":"Alganayen"}},
    {"model":"address.area","fields":{"id":"251","state_id":"14","name_ar":"عتاقة","name":"Ataqah"}},
    {"model":"address.area","fields":{"id":"252","state_id":"14","name_ar":"العين السخنة","name":"Ain Sokhna"}},
    {"model":"address.area","fields":{"id":"253","state_id":"14","name_ar":"فيصل","name":"Faysal"}},
    {"model":"address.area","fields":{"id":"254","state_id":"15","name_ar":"أسوان","name":"Aswan"}},
    {"model":"address.area","fields":{"id":"255","state_id":"15","name_ar":"أسوان الجديدة","name":"Aswan El Gedida"}},
    {"model":"address.area","fields":{"id":"256","state_id":"15","name_ar":"دراو","name":"Drau"}},
    {"model":"address.area","fields":{"id":"257","state_id":"15","name_ar":"كوم أمبو","name":"Kom Ombo"}},
    {"model":"address.area","fields":{"id":"258","state_id":"15","name_ar":"نصر النوبة","name":"Nasr Al Nuba"}},
    {"model":"address.area","fields":{"id":"259","state_id":"15","name_ar":"كلابشة","name":"Kalabsha"}},
    {"model":"address.area","fields":{"id":"260","state_id":"15","name_ar":"إدفو","name":"Edfu"}},
    {"model":"address.area","fields":{"id":"261","state_id":"15","name_ar":"الرديسية","name":"Al-Radisiyah"}},
    {"model":"address.area","fields":{"id":"262","state_id":"15","name_ar":"البصيلية","name":"Al Basilia"}},
    {"model":"address.area","fields":{"id":"263","state_id":"15","name_ar":"السباعية","name":"Al Sibaeia"}},
    {"model":"address.area","fields":{"id":"264","state_id":"15","name_ar":"ابوسمبل السياحية","name":"Abo Simbl Al Siyahia"}},
    {"model":"address.area","fields":{"id":"265","state_id":"15","name_ar":"مرسى علم","name":"Marsa Alam"}},
    {"model":"address.area","fields":{"id":"266","state_id":"16","name_ar":"أسيوط","name":"Assiut"}},
    {"model":"address.area","fields":{"id":"267","state_id":"16","name_ar":"أسيوط الجديدة","name":"Assiut El Gedida"}},
    {"model":"address.area","fields":{"id":"268","state_id":"16","name_ar":"ديروط","name":"Dayrout"}},
    {"model":"address.area","fields":{"id":"269","state_id":"16","name_ar":"منفلوط","name":"Manfalut"}},
    {"model":"address.area","fields":{"id":"270","state_id":"16","name_ar":"القوصية","name":"Qusiya"}},
    {"model":"address.area","fields":{"id":"271","state_id":"16","name_ar":"أبنوب","name":"Abnoub"}},
    {"model":"address.area","fields":{"id":"272","state_id":"16","name_ar":"أبو تيج","name":"Abu Tig"}},
    {"model":"address.area","fields":{"id":"273","state_id":"16","name_ar":"الغنايم","name":"El Ghanaim"}},
    {"model":"address.area","fields":{"id":"274","state_id":"16","name_ar":"ساحل سليم","name":"Sahel Selim"}},
    {"model":"address.area","fields":{"id":"275","state_id":"16","name_ar":"البداري","name":"El Badari"}},
    {"model":"address.area","fields":{"id":"276","state_id":"16","name_ar":"صدفا","name":"Sidfa"}},
    {"model":"address.area","fields":{"id":"277","state_id":"17","name_ar":"بني سويف","name":"Bani Sweif"}},
    {"model":"address.area","fields":{"id":"278","state_id":"17","name_ar":"بني سويف الجديدة","name":"Beni Suef El Gedida"}},
    {"model":"address.area","fields":{"id":"279","state_id":"17","name_ar":"الواسطى","name":"Al Wasta"}},
    {"model":"address.area","fields":{"id":"280","state_id":"17","name_ar":"ناصر","name":"Naser"}},
    {"model":"address.area","fields":{"id":"281","state_id":"17","name_ar":"إهناسيا","name":"Ehnasia"}},
    {"model":"address.area","fields":{"id":"282","state_id":"17","name_ar":"ببا","name":"beba"}},
    {"model":"address.area","fields":{"id":"283","state_id":"17","name_ar":"الفشن","name":"Fashn"}},
    {"model":"address.area","fields":{"id":"284","state_id":"17","name_ar":"سمسطا","name":"Somasta"}},
    {"model":"address.area","fields":{"id":"285","state_id":"17","name_ar":"الاباصيرى","name":"Alabbaseri"}},
    {"model":"address.area","fields":{"id":"286","state_id":"17","name_ar":"مقبل","name":"Mokbel"}},
    {"model":"address.area","fields":{"id":"287","state_id":"18","name_ar":"بورسعيد","name":"PorSaid"}},
    {"model":"address.area","fields":{"id":"288","state_id":"18","name_ar":"بورفؤاد","name":"Port Fouad"}},
    {"model":"address.area","fields":{"id":"289","state_id":"18","name_ar":"العرب","name":"Alarab"}},
    {"model":"address.area","fields":{"id":"290","state_id":"18","name_ar":"حى الزهور","name":"Zohour"}},
    {"model":"address.area","fields":{"id":"291","state_id":"18","name_ar":"حى الشرق","name":"Alsharq"}},
    {"model":"address.area","fields":{"id":"292","state_id":"18","name_ar":"حى الضواحى","name":"Aldawahi"}},
    {"model":"address.area","fields":{"id":"293","state_id":"18","name_ar":"حى المناخ","name":"Almanakh"}},
    {"model":"address.area","fields":{"id":"294","state_id":"18","name_ar":"حى مبارك","name":"Mubarak"}},
    {"model":"address.area","fields":{"id":"295","state_id":"19","name_ar":"دمياط","name":"Damietta"}},
    {"model":"address.area","fields":{"id":"296","state_id":"19","name_ar":"دمياط الجديدة","name":"New Damietta"}},
    {"model":"address.area","fields":{"id":"297","state_id":"19","name_ar":"رأس البر","name":"Ras El Bar"}},
    {"model":"address.area","fields":{"id":"298","state_id":"19","name_ar":"فارسكور","name":"Faraskour"}},
    {"model":"address.area","fields":{"id":"299","state_id":"19","name_ar":"الزرقا","name":"Zarqa"}},
    {"model":"address.area","fields":{"id":"300","state_id":"19","name_ar":"السرو","name":"alsaru"}},
    {"model":"address.area","fields":{"id":"301","state_id":"19","name_ar":"الروضة","name":"alruwda"}},
    {"model":"address.area","fields":{"id":"302","state_id":"19","name_ar":"كفر البطيخ","name":"Kafr El-Batikh"}},
    {"model":"address.area","fields":{"id":"303","state_id":"19","name_ar":"عزبة البرج","name":"Azbet Al Burg"}},
    {"model":"address.area","fields":{"id":"304","state_id":"19","name_ar":"ميت أبو غالب","name":"Meet Abou Ghalib"}},
    {"model":"address.area","fields":{"id":"305","state_id":"19","name_ar":"كفر سعد","name":"Kafr Saad"}},
    {"model":"address.area","fields":{"id":"306","state_id":"20","name_ar":"الزقازيق","name":"Zagazig"}},
    {"model":"address.area","fields":{"id":"307","state_id":"20","name_ar":"العاشر من رمضان","name":"Al Ashr Men Ramadan"}},
    {"model":"address.area","fields":{"id":"308","state_id":"20","name_ar":"منيا القمح","name":"Minya Al Qamh"}},
    {"model":"address.area","fields":{"id":"309","state_id":"20","name_ar":"بلبيس","name":"Belbeis"}},
    {"model":"address.area","fields":{"id":"310","state_id":"20","name_ar":"مشتول السوق","name":"Mashtoul El Souq"}},
    {"model":"address.area","fields":{"id":"311","state_id":"20","name_ar":"القنايات","name":"Qenaiat"}},
    {"model":"address.area","fields":{"id":"312","state_id":"20","name_ar":"أبو حماد","name":"Abu Hammad"}},
    {"model":"address.area","fields":{"id":"313","state_id":"20","name_ar":"القرين","name":"El Qurain"}},
    {"model":"address.area","fields":{"id":"314","state_id":"20","name_ar":"ههيا","name":"Hehia"}},
    {"model":"address.area","fields":{"id":"315","state_id":"20","name_ar":"أبو كبير","name":"Abu Kabir"}},
    {"model":"address.area","fields":{"id":"316","state_id":"20","name_ar":"فاقوس","name":"Faccus"}},
    {"model":"address.area","fields":{"id":"317","state_id":"20","name_ar":"الصالحية الجديدة","name":"El Salihia El Gedida"}},
    {"model":"address.area","fields":{"id":"318","state_id":"20","name_ar":"الإبراهيمية","name":"Al Ibrahimiyah"}},
    {"model":"address.area","fields":{"id":"319","state_id":"20","name_ar":"ديرب نجم","name":"Deirb Negm"}},
    {"model":"address.area","fields":{"id":"320","state_id":"20","name_ar":"كفر صقر","name":"Kafr Saqr"}},
    {"model":"address.area","fields":{"id":"321","state_id":"20","name_ar":"أولاد صقر","name":"Awlad Saqr"}},
    {"model":"address.area","fields":{"id":"322","state_id":"20","name_ar":"الحسينية","name":"Husseiniya"}},
    {"model":"address.area","fields":{"id":"323","state_id":"20","name_ar":"صان الحجر القبلية","name":"san alhajar alqablia"}},
    {"model":"address.area","fields":{"id":"324","state_id":"20","name_ar":"منشأة أبو عمر","name":"Manshayat Abu Omar"}},
    {"model":"address.area","fields":{"id":"325","state_id":"21","name_ar":"الطور","name":"Al Toor"}},
    {"model":"address.area","fields":{"id":"326","state_id":"21","name_ar":"شرم الشيخ","name":"Sharm El-Shaikh"}},
    {"model":"address.area","fields":{"id":"327","state_id":"21","name_ar":"دهب","name":"Dahab"}},
    {"model":"address.area","fields":{"id":"328","state_id":"21","name_ar":"نويبع","name":"Nuweiba"}},
    {"model":"address.area","fields":{"id":"329","state_id":"21","name_ar":"طابا","name":"Taba"}},
    {"model":"address.area","fields":{"id":"330","state_id":"21","name_ar":"سانت كاترين","name":"Saint Catherine"}},
    {"model":"address.area","fields":{"id":"331","state_id":"21","name_ar":"أبو رديس","name":"Abu Redis"}},
    {"model":"address.area","fields":{"id":"332","state_id":"21","name_ar":"أبو زنيمة","name":"Abu Zenaima"}},
    {"model":"address.area","fields":{"id":"333","state_id":"21","name_ar":"رأس سدر","name":"Ras Sidr"}},
    {"model":"address.area","fields":{"id":"334","state_id":"22","name_ar":"كفر الشيخ","name":"Kafr El Sheikh"}},
    {"model":"address.area","fields":{"id":"335","state_id":"22","name_ar":"وسط البلد كفر الشيخ","name":"Kafr El Sheikh Downtown"}},
    {"model":"address.area","fields":{"id":"336","state_id":"22","name_ar":"دسوق","name":"Desouq"}},
    {"model":"address.area","fields":{"id":"337","state_id":"22","name_ar":"فوه","name":"Fooh"}},
    {"model":"address.area","fields":{"id":"338","state_id":"22","name_ar":"مطوبس","name":"Metobas"}},
    {"model":"address.area","fields":{"id":"339","state_id":"22","name_ar":"برج البرلس","name":"Burg Al Burullus"}},
    {"model":"address.area","fields":{"id":"340","state_id":"22","name_ar":"بلطيم","name":"Baltim"}},
    {"model":"address.area","fields":{"id":"341","state_id":"22","name_ar":"مصيف بلطيم","name":"Masief Baltim"}},
    {"model":"address.area","fields":{"id":"342","state_id":"22","name_ar":"الحامول","name":"Hamol"}},
    {"model":"address.area","fields":{"id":"343","state_id":"22","name_ar":"بيلا","name":"Bella"}},
    {"model":"address.area","fields":{"id":"344","state_id":"22","name_ar":"الرياض","name":"Riyadh"}},
    {"model":"address.area","fields":{"id":"345","state_id":"22","name_ar":"سيدي سالم","name":"Sidi Salm"}},
    {"model":"address.area","fields":{"id":"346","state_id":"22","name_ar":"قلين","name":"Qellen"}},
    {"model":"address.area","fields":{"id":"347","state_id":"22","name_ar":"سيدي غازي","name":"Sidi Ghazi"}},
    {"model":"address.area","fields":{"id":"348","state_id":"23","name_ar":"مرسى مطروح","name":"Marsa Matrouh"}},
    {"model":"address.area","fields":{"id":"349","state_id":"23","name_ar":"الحمام","name":"El Hamam"}},
    {"model":"address.area","fields":{"id":"350","state_id":"23","name_ar":"العلمين","name":"Alamein"}},
    {"model":"address.area","fields":{"id":"351","state_id":"23","name_ar":"الضبعة","name":"Dabaa"}},
    {"model":"address.area","fields":{"id":"352","state_id":"23","name_ar":"النجيلة","name":"Al-Nagila"}},
    {"model":"address.area","fields":{"id":"353","state_id":"23","name_ar":"سيدي براني","name":"Sidi Brani"}},
    {"model":"address.area","fields":{"id":"354","state_id":"23","name_ar":"السلوم","name":"Salloum"}},
    {"model":"address.area","fields":{"id":"355","state_id":"23","name_ar":"سيوة","name":"Siwa"}},
    {"model":"address.area","fields":{"id":"356","state_id":"23","name_ar":"مارينا","name":"Marina"}},
    {"model":"address.area","fields":{"id":"357","state_id":"23","name_ar":"الساحل الشمالى","name":"North Coast"}},
    {"model":"address.area","fields":{"id":"358","state_id":"24","name_ar":"الأقصر","name":"Luxor"}},
    {"model":"address.area","fields":{"id":"359","state_id":"24","name_ar":"الأقصر الجديدة","name":"New Luxor"}},
    {"model":"address.area","fields":{"id":"360","state_id":"24","name_ar":"إسنا","name":"Esna"}},
    {"model":"address.area","fields":{"id":"361","state_id":"24","name_ar":"طيبة الجديدة","name":"New Tiba"}},
    {"model":"address.area","fields":{"id":"362","state_id":"24","name_ar":"الزينية","name":"Al ziynia"}},
    {"model":"address.area","fields":{"id":"363","state_id":"24","name_ar":"البياضية","name":"Al Bayadieh"}},
    {"model":"address.area","fields":{"id":"364","state_id":"24","name_ar":"القرنة","name":"Al Qarna"}},
    {"model":"address.area","fields":{"id":"365","state_id":"24","name_ar":"أرمنت","name":"Armant"}},
    {"model":"address.area","fields":{"id":"366","state_id":"24","name_ar":"الطود","name":"Al Tud"}},
    {"model":"address.area","fields":{"id":"367","state_id":"25","name_ar":"قنا","name":"Qena"}},
    {"model":"address.area","fields":{"id":"368","state_id":"25","name_ar":"قنا الجديدة","name":"New Qena"}},
    {"model":"address.area","fields":{"id":"369","state_id":"25","name_ar":"ابو طشت","name":"Abu Tesht"}},
    {"model":"address.area","fields":{"id":"370","state_id":"25","name_ar":"نجع حمادي","name":"Nag Hammadi"}},
    {"model":"address.area","fields":{"id":"371","state_id":"25","name_ar":"دشنا","name":"Deshna"}},
    {"model":"address.area","fields":{"id":"372","state_id":"25","name_ar":"الوقف","name":"Alwaqf"}},
    {"model":"address.area","fields":{"id":"373","state_id":"25","name_ar":"قفط","name":"Qaft"}},
    {"model":"address.area","fields":{"id":"374","state_id":"25","name_ar":"نقادة","name":"Naqada"}},
    {"model":"address.area","fields":{"id":"375","state_id":"25","name_ar":"فرشوط","name":"Farshout"}},
    {"model":"address.area","fields":{"id":"376","state_id":"25","name_ar":"قوص","name":"Quos"}},
    {"model":"address.area","fields":{"id":"377","state_id":"26","name_ar":"العريش","name":"Arish"}},
    {"model":"address.area","fields":{"id":"378","state_id":"26","name_ar":"الشيخ زويد","name":"Sheikh Zowaid"}},
    {"model":"address.area","fields":{"id":"379","state_id":"26","name_ar":"نخل","name":"Nakhl"}},
    {"model":"address.area","fields":{"id":"380","state_id":"26","name_ar":"رفح","name":"Rafah"}},
    {"model":"address.area","fields":{"id":"381","state_id":"26","name_ar":"بئر العبد","name":"Bir al-Abed"}},
    {"model":"address.area","fields":{"id":"382","state_id":"26","name_ar":"الحسنة","name":"Al Hasana"}},
    {"model":"address.area","fields":{"id":"383","state_id":"27","name_ar":"سوهاج","name":"Sohag"}},
    {"model":"address.area","fields":{"id":"384","state_id":"27","name_ar":"سوهاج الجديدة","name":"Sohag El Gedida"}},
    {"model":"address.area","fields":{"id":"385","state_id":"27","name_ar":"أخميم","name":"Akhmeem"}},
    {"model":"address.area","fields":{"id":"386","state_id":"27","name_ar":"أخميم الجديدة","name":"Akhmim El Gedida"}},
    {"model":"address.area","fields":{"id":"387","state_id":"27","name_ar":"البلينا","name":"Albalina"}},
    {"model":"address.area","fields":{"id":"388","state_id":"27","name_ar":"المراغة","name":"El Maragha"}},
    {"model":"address.area","fields":{"id":"389","state_id":"27","name_ar":"المنشأة","name":"almunsha'a"}},
    {"model":"address.area","fields":{"id":"390","state_id":"27","name_ar":"دار السلام","name":"Dar AISalaam"}},
    {"model":"address.area","fields":{"id":"391","state_id":"27","name_ar":"جرجا","name":"Gerga"}},
    {"model":"address.area","fields":{"id":"392","state_id":"27","name_ar":"جهينة الغربية","name":"Jahina Al Gharbia"}},
    {"model":"address.area","fields":{"id":"393","state_id":"27","name_ar":"ساقلته","name":"Saqilatuh"}},
    {"model":"address.area","fields":{"id":"394","state_id":"27","name_ar":"طما","name":"Tama"}},
    {"model":"address.area","fields":{"id":"395","state_id":"27","name_ar":"طهطا","name":"Tahta"}},
    {"model":"address.area","fields":{"id":"396","state_id":"27","name_ar":"الكوثر","name":"Alkawthar"}}

]